XRISM                   
1 57800U 23137A   26074.91398952  .00005171  00000+0  29160-3 0  9995
2 57800  31.0005 243.4010 0007914 101.4444 258.7084 15.11573994138735
ACS3                    
1 59588U 24077B   26074.83366377  .00014422  00000+0  11528-1 0  9997
2 59588  97.2032  14.5642 0065204  61.8624 298.9109 13.89880275 95054
SZ-21 MODULE            
1 66515U 25246C   26074.61177792  .00034609  00000+0  29227-3 0  9997
2 66515  41.4740 166.8918 0000819 310.4718  49.6052 15.69044572 19005
