CCSDS_OMM_VERS = 2.0
CREATION_DATE  = 
ORIGINATOR     = 

OBJECT_NAME    = XRISM
OBJECT_ID      = 2023-137A
CENTER_NAME    = EARTH
REF_FRAME      = TEME
TIME_SYSTEM    = UTC
MEAN_ELEMENT_THEORY = SGP/SGP4

EPOCH          = 2026-03-15T21:56:08.694528
MEAN_MOTION    = 15.11573994
ECCENTRICITY   = .00079145
INCLINATION    = 31.0005
RA_OF_ASC_NODE = 243.4010
ARG_OF_PERICENTER = 101.4444
MEAN_ANOMALY   = 258.7084

EPHEMERIS_TYPE = 0
CLASSIFICATION_TYPE = U
NORAD_CAT_ID   = 57800
ELEMENT_SET_NO = 999
REV_AT_EPOCH   = 13873
BSTAR          = .29159659E-3
MEAN_MOTION_DOT = .5171E-4
MEAN_MOTION_DDOT = 0

CCSDS_OMM_VERS = 2.0
CREATION_DATE  = 
ORIGINATOR     = 

OBJECT_NAME    = ACS3
OBJECT_ID      = 2024-077B
CENTER_NAME    = EARTH
REF_FRAME      = TEME
TIME_SYSTEM    = UTC
MEAN_ELEMENT_THEORY = SGP/SGP4

EPOCH          = 2026-03-15T20:00:28.549728
MEAN_MOTION    = 13.89880275
ECCENTRICITY   = .00652043
INCLINATION    = 97.2032
RA_OF_ASC_NODE = 14.5642
ARG_OF_PERICENTER = 61.8624
MEAN_ANOMALY   = 298.9109

EPHEMERIS_TYPE = 0
CLASSIFICATION_TYPE = U
NORAD_CAT_ID   = 59588
ELEMENT_SET_NO = 999
REV_AT_EPOCH   = 9505
BSTAR          = .11527933E-1
MEAN_MOTION_DOT = .14422E-3
MEAN_MOTION_DDOT = 0

CCSDS_OMM_VERS = 2.0
CREATION_DATE  = 
ORIGINATOR     = 

OBJECT_NAME    = SZ-21 MODULE
OBJECT_ID      = 2025-246C
CENTER_NAME    = EARTH
REF_FRAME      = TEME
TIME_SYSTEM    = UTC
MEAN_ELEMENT_THEORY = SGP/SGP4

EPOCH          = 2026-03-15T14:40:57.612288
MEAN_MOTION    = 15.69044572
ECCENTRICITY   = .00008196
INCLINATION    = 41.4740
RA_OF_ASC_NODE = 166.8918
ARG_OF_PERICENTER = 310.4718
MEAN_ANOMALY   = 49.6052

EPHEMERIS_TYPE = 0
CLASSIFICATION_TYPE = U
NORAD_CAT_ID   = 66515
ELEMENT_SET_NO = 999
REV_AT_EPOCH   = 1900
BSTAR          = .29227235E-3
MEAN_MOTION_DOT = .34609E-3
MEAN_MOTION_DDOT = 0

